[{"OBJECT_NAME":"ONEWEB-0407","OBJECT_ID":"2021-132U","EPOCH":"2026-03-09T17:13:36.350112","MEAN_MOTION":13.18686193,"ECCENTRICITY":0.00017905,"INCLINATION":87.9253,"RA_OF_ASC_NODE":355.2008,"ARG_OF_PERICENTER":83.6351,"MEAN_ANOMALY":276.4985,"EPHEMERIS_TYPE":0,"CLASSIFICATION_TYPE":"U","NORAD_CAT_ID":50487,"ELEMENT_SET_NO":999,"REV_AT_EPOCH":20845,"BSTAR":-0.00015662873,"MEAN_MOTION_DOT":-4.9e-7,"MEAN_MOTION_DDOT":0},{"OBJECT_NAME":"THORAD AGENA D DEB","OBJECT_ID":"1970-025KG","EPOCH":"2026-03-09T06:28:07.053312","MEAN_MOTION":12.92614425,"ECCENTRICITY":0.03850966,"INCLINATION":99.8464,"RA_OF_ASC_NODE":320.8554,"ARG_OF_PERICENTER":229.2766,"MEAN_ANOMALY":256.3695,"EPHEMERIS_TYPE":0,"CLASSIFICATION_TYPE":"U","NORAD_CAT_ID":5220,"ELEMENT_SET_NO":999,"REV_AT_EPOCH":61858,"BSTAR":0.0018945315,"MEAN_MOTION_DOT":6.77e-6,"MEAN_MOTION_DDOT":0}]
